USA 176 (DSP 22)        
1 28158U 04004A   24041.46114522 -.00000221  00000+0  00000+0 0  9992
2 28158  10.8881  31.8025 0001036 291.5333  70.0914  1.00272192 24334
ABS-4 (MOBISAT-1)       
1 28184U 04007A   24041.52754354  .00000035  00000+0  00000+0 0  9996
2 28184   3.8548  82.3363 0006536 238.8789  69.7368  1.00273315 43731
EUTELSAT 7A             
1 28187U 04008A   24041.59390755  .00000099  00000+0  00000+0 0  9998
2 28187   3.6394  82.0697 0002841 251.5440 241.1230  1.00272895 72759
AMC-11 (GE-11)          
1 28252U 04017A   24041.50782860 -.00000052  00000+0  00000+0 0  9994
2 28252   0.0109 316.2450 0002763 336.4662 279.0848  1.00266160 72278
INTELSAT 10-02          
1 28358U 04022A   24041.00952380 -.00000014  00000+0  00000+0 0  9996
2 28358   0.0181 234.6087 0000799 109.1241 158.3048  1.00270077 71945
ANIK F2                 
1 28378U 04027A   24041.50793997 -.00000053  00000+0  00000+0 0  9998
2 28378   1.0603  90.6767 0001360 264.8538 216.2710  1.00271254 32669
AMC-15                  
1 28446U 04041A   24041.51263660 -.00000092  00000+0  00000+0 0  9993
2 28446   0.0650 284.5974 0002522  18.7679 276.1831  1.00271164 70710
NSS-10 (AMC-12)         
1 28526U 05003A   24041.43625674 -.00000255  00000+0  00000+0 0  9990
2 28526   4.2912  80.6843 0002990 237.8969 301.0082  1.00271202 44553
XTAR-EUR                
1 28542U 05005A   24040.77561645  .00000148  00000+0  00000+0 0  9993
2 28542   2.1160  87.4356 0005135 220.7684 139.3503  1.00272655 69589
XM-3 (RHYTHM)           
1 28626U 05008A   24041.49839094 -.00000209  00000+0  00000+0 0  9994
2 28626   0.0414 262.6000 0000362 313.2401  18.5238  1.00268665 34026
INMARSAT 4-F1           
1 28628U 05009A   24041.55306993  .00000030  00000+0  00000+0 0  9992
2 28628   4.1449  40.3345 0001750 291.3757 185.5918  1.00271143 69074
DIRECTV 8               
1 28659U 05019A   24041.61215376 -.00000003  00000+0  00000+0 0  9999
2 28659   0.0180  96.4795 0002994 236.3464 268.6666  1.00271507 68471
GALAXY 28 (G-28)        
1 28702U 05022A   24041.49841219 -.00000189  00000+0  00000+0 0  9994
2 28702   1.0788  89.4972 0005796 206.2019 294.7622  1.00271091 43382
THAICOM 4               
1 28786U 05028A   24041.54927918 -.00000367  00000+0  00000+0 0  9997
2 28786   0.0245 115.6803 0001999 212.7430 128.9089  1.00266927 43653
GALAXY 14 (G-14)        
1 28790U 05030A   24041.52410586  .00000150  00000+0  00000+0 0  9990
2 28790   2.8004  85.3838 0001434 237.9422  38.3118  1.00270468 67700
ANIK F1R                
1 28868U 05036A   24041.51048483 -.00000078  00000+0  00000+0 0  9994
2 28868   2.1016  87.2173 0001835 259.5077 229.8027  1.00271722 37859
SYRACUSE 3A             
1 28885U 05041B   24041.52458477  .00000127  00000+0  00000+0 0  9992
2 28885   2.4448  86.4670 0003228 232.7118  55.9249  1.00272788 67142
INMARSAT 4-F2           
1 28899U 05044A   24041.55841047 -.00000264  00000+0  00000+0 0  9995
2 28899   4.0500  41.9510 0001901 294.2605 148.4135  1.00270143 66923
SPACEWAY 2              
1 28903U 05046B   24041.59402711  .00000099  00000+0  00000+0 0  9993
2 28903   3.3049  81.7115 0000101 109.7577  23.5919  1.00272177 42747
METEOSAT-9 (MSG-2)      
1 28912U 05049B   24041.17966229  .00000123  00000+0  00000+0 0  9997
2 28912   7.3914  61.9255 0000612  46.5890 141.6009  1.00268861 66440
EUTELSAT 174A           
1 28924U 05052A   24041.54773100  .00000005  00000+0  00000+0 0  9998
2 28924   2.0319  87.0411 0006145 236.9702 187.2423  1.00271562 43736
ECHOSTAR 10             
1 28935U 06003A   24041.50833310 -.00000059  00000+0  00000+0 0  9993
2 28935   0.0595 281.5636 0001550  22.5921 268.6937  1.00271145 65879
SPAINSAT                
1 28945U 06007A   24040.69628772 -.00000218  00000+0  00000+0 0  9998
2 28945   0.0518 261.2197 0003839  33.8670  64.8450  1.00271396 65616
EUTELSAT HOTBIRD 13E    
1 28946U 06007B   24041.54771664  .00000082  00000+0  00000+0 0  9991
2 28946   0.0704 178.2298 0005104 131.6476  40.1883  1.00269851 65723
JCSAT-5A                
1 29045U 06010A   24041.55618241 -.00000332  00000+0  00000+0 0  9997
2 29045   0.0620 267.3107 0001774  14.7462 190.3193  1.00270859 65176
ASTRA 1KR               
1 29055U 06012A   24041.54215935  .00000116  00000+0  00000+0 0  9991
2 29055   0.0900 276.7731 0004018   2.1439  75.5164  1.00271775 37117
EWS-G1 (GOES 13)        
1 29155U 06018A   24041.52410586  .00000032  00000+0  00000+0 0  9992
2 29155   2.2911  86.8242 0088142 249.8261  27.2432  0.99154069 34767
EUTELSAT 113 WEST A     
1 29162U 06020A   24041.61720087 -.00000041  00000+0  00000+0 0  9994
2 29162   0.1486 102.5713 0003101 223.0290 283.7510  1.00272390 64878
GALAXY 16 (G-16)        
1 29236U 06023A   24041.51893951 -.00000130  00000+0  00000+0 0  9998
2 29236   0.0530 267.2514 0002661  61.7745 258.8500  1.00270089 64379
EUTELSAT HOTBIRD 13B    
1 29270U 06032A   24041.53608420  .00000152  00000+0  00000+0 0  9996
2 29270   0.0489 344.6416 0003482 328.6330  52.8747  1.00269402 38708
JCSAT-3A                
1 29272U 06033A   24041.55458333 -.00000349  00000+0  00000+0 0  9996
2 29272   0.0507 268.3296 0001803  61.1172 138.3158  1.00270376 39144
SYRACUSE 3B             
1 29273U 06033B   24041.42896338 -.00000048  00000+0  00000+0 0  9990
2 29273   0.6911  91.2920 0005123 224.7835 333.1173  1.00270658 64108
KOREASAT 5 (MUGUNGWHA 5)
1 29349U 06034A   24041.54385087 -.00000362  00000+0  00000+0 0  9991
2 29349   0.0278 213.6555 0001019  75.1855 160.0961  1.00272415 32713
DIRECTV 9S              
1 29494U 06043A   24041.51627403 -.00000116  00000+0  00000+0 0  9997
2 29494   0.1982  90.0109 0003048 241.4201 253.2800  1.00270436 42782
OPTUS D1                
1 29495U 06043B   24041.58083493 -.00000188  00000+0  00000+0 0  9999
2 29495   0.8132  90.4022 0003742 232.2892 178.5375  1.00270089 63525
BADR-4                  
1 29526U 06051A   24041.53660503  .00000140  00000+0  00000+0 0  9998
2 29526   0.0355  20.4515 0007230 304.4304  34.3433  1.00271138 42667
WILDBLUE-1              
1 29643U 06054A   24041.50793970 -.00000052  00000+0  00000+0 0  9996
2 29643   0.5797  92.4194 0001589 231.6574 247.6490  1.00271685 45195
SKYNET 5A               
1 30794U 07007B   24041.53433131 -.00000276  00000+0  00000+0 0  9995
2 30794   3.1027  83.9876 0003867 245.9701  97.6791  1.00270947 62097
ANIK F3                 
1 31102U 07009A   24041.61215293 -.00000004  00000+0  00000+0 0  9996
2 31102   0.0218 118.7879 0002151 204.5080 278.5725  1.00268315 37966
ASTRA 1L                
1 31306U 07016A   24041.54215935  .00000116  00000+0  00000+0 0  9998
2 31306   0.1022 293.9822 0005146  12.5146  47.9920  1.00273673 36403
GALAXY 17 (G-17)        
1 31307U 07016B   24041.49806497 -.00000209  00000+0  00000+0 0  9996
2 31307   0.7899  91.1519 0003777 212.6393 290.5701  1.00269733 61209
ZHONGXING-6B            
1 31800U 07031A   24041.54554144 -.00000366  00000+0  00000+0 0  9990
2 31800   0.1843  94.7985 0004286 224.4159 132.7677  1.00273204 60827
DIRECTV 10              
1 31862U 07032A   24041.51506726 -.00000106  00000+0  00000+0 0  9991
2 31862   0.0127 132.6094 0000624 192.2376 257.8314  1.00267181 36992
SPACEWAY 3              
1 32018U 07036A   24041.59158747  .00000058  00000+0  00000+0 0  9998
2 32018   1.7653  87.0461 0000727 338.5320 145.8629  0.99138735 37958
BSAT-3A                 
1 32019U 07036B   24041.39396369 -.00000354  00000+0  00000+0 0  9991
2 32019   0.0848 253.7903 0002904  24.2690 113.5367  1.00271700 41924
OPTUS D2                
1 32252U 07044A   24041.58730139 -.00000115  00000+0  00000+0 0  9992
2 32252   0.0159  90.4383 0003758 238.8415 182.2899  1.00271098 59979
INTELSAT 11 (IS-11)     
1 32253U 07044B   24041.43521247 -.00000272  00000+0  00000+0 0  9999
2 32253   1.3325  89.4253 0003088 238.9419 285.2911  1.00271170 59895
WGS F1 (USA 195)        
1 32258U 07046A   24041.37333932  .00000037  00000+0  00000+0 0  9999
2 32258   0.0149  87.7761 0000758 277.0061 275.5437  1.00269100 43745
SKYNET 5B               
1 32294U 07056B   24041.52032066  .00000136  00000+0  00000+0 0  9991
2 32294   3.0573  83.5343 0004027 241.5106  27.3913  1.00272241 59590
ASTRA 4A (SIRIUS 4)     
1 32299U 07057A   24041.37307825  .00000029  00000+0  00000+0 0  9999
2 32299   0.0457 288.8172 0002677  31.3882 318.8209  1.00270859 43051
HORIZONS-2              
1 32388U 07063B   24041.48730072 -.00000257  00000+0  00000+0 0  9995
2 32388   0.3794  91.1855 0001900 227.5934 282.8800  1.00273197 59215
THURAYA-3               
1 32404U 08001A   24041.53494046 -.00000305  00000+0  00000+0 0  9995
2 32404   4.6797  31.2266 0002214 301.2970  98.6437  1.00271704 58898
THOR 5                  
1 32487U 08006A   24041.42341163 -.00000013  00000+0  00000+0 0  9996
2 32487   0.0563 259.0623 0002232  63.8604 328.7258  1.00270078 58714
AMC-14                  
1 32708U 08011A   24041.16065583  .00000072  00000+0  00000+0 0  9992
2 32708  22.9158  30.8415 0042418 352.8822 191.2662  1.00274857 59554
DIRECTV 11              
1 32729U 08013A   24041.34701997 -.00000129  00000+0  00000+0 0  9997
2 32729   0.0194  93.9067 0001025  43.5812  28.1847  1.00268909 36996
ICO G1                  
1 32763U 08016A   24041.49841219 -.00000174  00000+0  00000+0 0  9996
2 32763   4.7239  33.9476 0002697 279.5803 273.1005  1.00272440 57941
VINASAT-1               
1 32767U 08018A   24041.55618241 -.00000333  00000+0  00000+0 0  9993
2 32767   0.0364 290.0530 0001663  61.7345 120.4879  1.00271757 57992
STAR ONE C2             
1 32768U 08018B   24041.48730072 -.00000280  00000+0  00000+0 0  9994
2 32768   0.0357  56.1903 0002678 274.0160 280.2427  1.00269503 58060
AMOS-3                  
1 32794U 08022A   24041.42341163 -.00000039  00000+0  00000+0 0  9993
2 32794   0.0141 113.7013 0002014 177.1539 357.4328  1.00270512 73739
